{
  "norad_id": 62955,
  "name": "STARLINK-32880",
  "history": [
    {
      "epoch": "2026-03-28T20:39:14.215680",
      "apogee_km": 476.092018203055,
      "perigee_km": 474.2747917644683,
      "latitude_deg": 31.55217532827855,
      "longitude_deg": -161.8842048002407,
      "semi_major_axis_km": 6853.320404983761,
      "eccentricity": 0.00013258,
      "inclination_deg": 53.1603,
      "raan_deg": 143.3417,
      "arg_perigee_deg": 89.485,
      "mean_anomaly_deg": 270.6303,
      "mean_motion_rev_day": 15.30210605
    },
    {
      "epoch": "2026-03-29T02:55:26.484384",
      "apogee_km": 475.71926242825066,
      "perigee_km": 474.61588039225444,
      "latitude_deg": -52.875242991192664,
      "longitude_deg": -136.80390624003485,
      "semi_major_axis_km": 6853.304571410253,
      "eccentricity": 8.05e-05,
      "inclination_deg": 53.1575,
      "raan_deg": 142.1304,
      "arg_perigee_deg": 107.9414,
      "mean_anomaly_deg": 252.1674,
      "mean_motion_rev_day": 15.30215908
    }
  ]
}